NORAD_CAT_ID,OBJECT_NAME,OBJECT_TYPE,EPOCH,MEAN_MOTION,ECCENTRICITY,INCLINATION,RA_OF_ASC_NODE,ARG_OF_PERICENTER,MEAN_ANOMALY,BSTAR,MEAN_MOTION_DOT,MEAN_MOTION_DDOT,TLE_LINE0,TLE_LINE1,TLE_LINE2,SEMIMAJOR_AXIS,PERIOD,APOGEE,PERIGEE,DECAYED
53798.0,STARLINK-4712,PAYLOAD,2024-07-20 21:06:01,15.0883203,0.0001338,53.2174,72.9157,106.4473,253.6666,8.2076e-05,1.018e-05,0.0,0 STARLINK-4712,1 53798U 22111AB  24202.87918369  .00001018  00000-0  82076-4 0  9997,2 53798  53.2174  72.9157 0001338 106.4473 253.6666 15.08832030102778,6917.905,95.438,540.695,538.844,0.0
53798.0,STARLINK-4712,PAYLOAD,2024-07-20 22:41:24,15.08834236,0.0001419,53.2172,72.6191,111.0684,249.046,0.00010006,1.305e-05,0.0,0 STARLINK-4712,1 53798U 22111AB  24202.94542212  .00001305  00000-0  10006-3 0  9997,2 53798  53.2172  72.6191 0001419 111.0684 249.0460 15.08834236103599,6917.898,95.438,540.745,538.781,0.0
53798.0,STARLINK-4712,PAYLOAD,2024-07-21 20:56:48,15.08848052,0.0001417,53.2174,68.4529,103.7183,256.3967,-8.1187e-05,-1.58e-05,0.0,0 STARLINK-4712,1 53798U 22111AB  24203.87277935 -.00001580  00000-0 -81187-4 0  9993,2 53798  53.2174  68.4529 0001417 103.7183 256.3967 15.08848052102929,6917.856,95.437,540.701,538.741,0.0
53798.0,STARLINK-4712,PAYLOAD,2024-07-21 22:32:11,15.08848417,0.0001546,53.2169,68.1525,58.454,301.6603,-1.0745e-05,-4.59e-06,0.0,0 STARLINK-4712,1 53798U 22111AB  24203.93901854 -.00000459  00000-0 -10745-4 0  9990,2 53798  53.2169  68.1525 0001546  58.4540 301.6603 15.08848417103749,6917.855,95.437,540.789,538.65,0.0
53798.0,STARLINK-4712,PAYLOAD,2024-07-22 22:22:57,15.0884866,0.0001473,53.2177,63.6892,69.7603,290.3548,0.00013175,1.81e-05,0.0,0 STARLINK-4712,1 53798U 22111AB  24204.93261313  .00001810  00000-0  13175-3 0  9999,2 53798  53.2177  63.6892 0001473  69.7603 290.3548 15.08848660103897,6917.854,95.437,540.738,538.7,0.0
53798.0,STARLINK-4712,PAYLOAD,2024-07-22 23:58:20,15.08849277,0.0001422,53.2179,63.3871,71.6328,288.4819,0.00013895,1.925e-05,0.0,0 STARLINK-4712,1 53798U 22111AB  24204.99885191  .00001925  00000-0  13895-3 0  9997,2 53798  53.2179  63.3871 0001422  71.6328 288.4819 15.08849277103099,6917.852,95.437,540.701,538.733,0.0
53798.0,STARLINK-4712,PAYLOAD,2024-07-23 07:55:17,15.0883547,0.0001899,53.2181,61.9031,81.3876,278.7331,9.1742e-05,1.172e-05,0.0,0 STARLINK-4712,1 53798U 22111AB  24205.33006747  .00001172  00000-0  91742-4 0  9990,2 53798  53.2181  61.9031 0001899  81.3876 278.7331 15.08835470103145,6917.894,95.438,541.073,538.446,0.0
53798.0,STARLINK-4712,PAYLOAD,2024-07-23 23:49:08,15.08839751,0.0001649,53.2179,58.9302,80.3086,279.8093,1.2665e-05,-8.6e-07,0.0,0 STARLINK-4712,1 53798U 22111AB  24205.99246463 -.00000086  00000-0  12665-4 0  9994,2 53798  53.2179  58.9302 0001649  80.3086 279.8093 15.08839751104058,6917.881,95.438,540.887,538.605,0.0
53798.0,STARLINK-4712,PAYLOAD,2024-07-25 23:30:42,15.08842967,0.0001959,53.2178,50.0115,81.58,278.5414,8.8807e-05,1.126e-05,0.0,0 STARLINK-4712,1 53798U 22111AB  24207.97966093  .00001126  00000-0  88807-4 0  9998,2 53798  53.2178  50.0115 0001959  81.5800 278.5414 15.08842967103542,6917.871,95.437,541.092,538.381,0.0
53798.0,STARLINK-4712,PAYLOAD,2024-07-26 20:10:42,15.08846905,0.0001125,53.2171,46.1455,81.3853,278.7267,9.1339e-05,1.166e-05,0.0,0 STARLINK-4712,1 53798U 22111AB  24208.84077350  .00001166  00000-0  91339-4 0  9992,2 53798  53.2171  46.1455 0001125  81.3853 278.7267 15.08846905104487,6917.859,95.437,540.503,538.946,0.0
53798.0,STARLINK-4712,PAYLOAD,2024-07-26 23:21:28,15.08850293,0.0001348,53.2175,45.5518,90.6212,269.4935,0.00029381,4.392e-05,0.0,0 STARLINK-4712,1 53798U 22111AB  24208.97324344  .00004392  00000-0  29381-3 0  9995,2 53798  53.2175  45.5518 0001348  90.6212 269.4935 15.08850293103699,6917.849,95.437,540.646,538.781,0.0
53798.0,STARLINK-4712,PAYLOAD,2024-07-27 12:04:35,15.08829987,0.000132,53.2197,43.1723,91.7298,268.3845,-2.1355e-05,-6.28e-06,0.0,0 STARLINK-4712,1 53798U 22111AB  24209.50318933 -.00000628  00000-0 -21355-4 0  9996,2 53798  53.2197  43.1723 0001320  91.7298 268.3845 15.08829987103774,6917.911,95.438,540.689,538.863,0.0
53798.0,STARLINK-4712,PAYLOAD,2024-07-27 21:36:54,15.0883302,0.0001521,53.2215,41.3902,94.85,265.2666,-1.2705e-05,-4.9e-06,0.0,0 STARLINK-4712,1 53798U 22111AB  24209.90062935 -.00000490  00000-0 -12705-4 0  9994,2 53798  53.2215  41.3902 0001521  94.8500 265.2666 15.08833020104644,6917.902,95.438,540.819,538.715,0.0
53798.0,STARLINK-4712,PAYLOAD,2024-07-28 21:27:40,15.08845751,0.0001295,53.2173,36.9277,92.1439,267.9701,6.9258e-05,8.15e-06,0.0,0 STARLINK-4712,1 53798U 22111AB  24210.89422120  .00000815  00000-0  69258-4 0  9994,2 53798  53.2173  36.9277 0001295  92.1439 267.9701 15.08845751103981,6917.863,95.437,540.624,538.832,0.0
53798.0,STARLINK-4712,PAYLOAD,2024-07-29 21:18:28,15.08845739,0.0001393,53.2162,32.4677,79.796,280.3189,0.00028529,4.256e-05,0.0,0 STARLINK-4712,1 53798U 22111AB  24211.88782484  .00004256  00000-0  28529-3 0  9994,2 53798  53.2162  32.4677 0001393  79.7960 280.3189 15.08845739104136,6917.863,95.437,540.692,538.764,0.0
53798.0,STARLINK-4712,PAYLOAD,2024-07-30 11:36:56,15.08841802,0.0001395,53.2145,29.7936,88.3344,271.7808,0.00018053,2.587e-05,0.0,0 STARLINK-4712,1 53798U 22111AB  24212.48398709  .00002587  00000-0  18053-3 0  9990,2 53798  53.2145  29.7936 0001395  88.3344 271.7808 15.08841802104227,6917.875,95.437,540.705,538.775,0.0
53798.0,STARLINK-4712,PAYLOAD,2024-07-30 21:09:14,15.08849023,0.0001499,53.2149,28.0089,83.499,276.6173,0.00014961,2.094e-05,0.0,0 STARLINK-4712,1 53798U 22111AB  24212.88142305  .00002094  00000-0  14961-3 0  9990,2 53798  53.2149  28.0089 0001499  83.4990 276.6173 15.08849023105098,6917.853,95.437,540.755,538.681,0.0
53798.0,STARLINK-4712,PAYLOAD,2024-07-31 05:06:11,15.0883883,0.0001735,53.2135,26.5252,68.5475,291.5702,2.1969e-05,6.2e-07,0.0,0 STARLINK-4712,1 53798U 22111AB  24213.21262908  .00000062  00000-0  21969-4 0  9990,2 53798  53.2135  26.5252 0001735  68.5475 291.5702 15.08838830104337,6917.884,95.438,540.949,538.549,0.0
53798.0,STARLINK-4712,PAYLOAD,2024-07-31 21:00:02,15.08841096,0.0001379,53.217,23.5431,94.3805,265.7345,0.00010221,1.339e-05,0.0,0 STARLINK-4712,1 53798U 22111AB  24213.87502796  .00001339  00000-0  10221-3 0  9990,2 53798  53.2170  23.5431 0001379  94.3805 265.7345 15.08841096105245,6917.877,95.437,540.696,538.788,0.0
53798.0,STARLINK-4712,PAYLOAD,2024-08-01 20:50:48,15.08867354,0.000131,53.2166,19.0847,92.9226,267.1916,0.00040403,6.153e-05,0.0,0 STARLINK-4712,1 53798U 22111AB  24214.86861175  .00006153  00000-0  40403-3 0  9993,2 53798  53.2166  19.0847 0001310  92.9226 267.1916 15.08867354104588,6917.797,95.436,540.568,538.756,0.0
53798.0,STARLINK-4712,PAYLOAD,2024-08-02 11:09:17,15.08831922,0.0001275,53.2183,16.4067,99.9363,260.1773,-1.1342e-05,-4.68e-06,0.0,0 STARLINK-4712,1 53798U 22111AB  24215.46479007 -.00000468  00000-0 -11342-4 0  9995,2 53798  53.2183  16.4067 0001275  99.9363 260.1773 15.08831922104677,6917.905,95.438,540.652,538.888,0.0
53798.0,STARLINK-4712,PAYLOAD,2024-08-02 14:20:04,15.08832936,0.0001381,53.2181,15.8121,96.9492,263.1657,4.6856e-06,-2.13e-06,0.0,0 STARLINK-4712,1 53798U 22111AB  24215.59727061 -.00000213  00000-0  46856-5 0  9991,2 53798  53.2181  15.8121 0001381  96.9492 263.1657 15.08832936105500,6917.902,95.438,540.722,538.812,0.0
53798.0,STARLINK-4712,PAYLOAD,2024-08-02 20:41:36,15.0883588,0.0001358,53.2181,14.6243,83.8749,276.2398,-8.4586e-06,-4.23e-06,0.0,0 STARLINK-4712,1 53798U 22111AB  24215.86223051 -.00000423  00000-0 -84586-5 0  9997,2 53798  53.2181  14.6243 0001358  83.8749 276.2398 15.08835880105548,6917.893,95.438,540.697,538.819,0.0
53798.0,STARLINK-4712,PAYLOAD,2024-08-03 11:00:04,15.08843941,0.0001253,53.2172,11.9493,77.1092,283.004,-0.00012454,-2.27e-05,0.0,0 STARLINK-4712,1 53798U 22111AB  24216.45838549 -.00002270  00000-0 -12454-3 0  9992,2 53798  53.2172  11.9493 0001253  77.1092 283.0040 15.08843941104823,6917.868,95.437,540.6,538.867,0.0
53798.0,STARLINK-4712,PAYLOAD,2024-08-03 14:10:50,15.08853873,0.0001361,53.2174,11.3531,96.4112,263.7035,4.6305e-05,4.49e-06,0.0,0 STARLINK-4712,1 53798U 22111AB  24216.59086032  .00000449  00000-0  46305-4 0  9996,2 53798  53.2174  11.3531 0001361  96.4112 263.7035 15.08853873105655,6917.838,95.437,540.645,538.761,0.0
53798.0,STARLINK-4712,PAYLOAD,2024-08-03 17:21:36,15.08854861,0.0001319,53.2175,10.7622,82.2521,277.8621,0.00011925,1.611e-05,0.0,0 STARLINK-4712,1 53798U 22111AB  24216.72334106  .00001611  00000-0  11925-3 0  9990,2 53798  53.2175  10.7622 0001319  82.2521 277.8621 15.08854861104867,6917.835,95.437,540.612,538.788,0.0
53798.0,STARLINK-4712,PAYLOAD,2024-08-04 02:53:55,15.08842284,0.0001565,53.2174,8.9746,80.0989,280.018,-4.854e-05,-1.061e-05,0.0,0 STARLINK-4712,1 53798U 22111AB  24217.12078532 -.00001061  00000-0 -48540-4 0  9998,2 53798  53.2174   8.9746 0001565  80.0989 280.0180 15.08842284104928,6917.873,95.437,540.821,538.656,0.0
53798.0,STARLINK-4712,PAYLOAD,2024-08-04 10:50:52,15.08833343,0.000168,53.2175,7.489,88.6799,271.4386,0.00018559,2.666e-05,0.0,0 STARLINK-4712,1 53798U 22111AB  24217.45199433  .00002666  00000-0  18559-3 0  9994,2 53798  53.2175   7.4890 0001680  88.6799 271.4386 15.08833343104977,6917.901,95.438,540.928,538.604,0.0
53798.0,STARLINK-4712,PAYLOAD,2024-08-04 14:01:38,15.08842416,0.000143,53.2181,6.8932,107.7023,252.4125,0.00023005,3.375e-05,0.0,0 STARLINK-4712,1 53798U 22111AB  24217.58446968  .00003375  00000-0  23005-3 0  9996,2 53798  53.2181   6.8932 0001430 107.7023 252.4125 15.08842416105804,6917.873,95.437,540.727,538.749,0.0
53798.0,STARLINK-4712,PAYLOAD,2024-08-04 17:12:24,15.08844889,0.0001343,53.2178,6.3027,103.7498,256.3644,0.00029717,4.445e-05,0.0,0 STARLINK-4712,1 53798U 22111AB  24217.71694919  .00004445  00000-0  29717-3 0  9997,2 53798  53.2178   6.3027 0001343 103.7498 256.3644 15.08844889105013,6917.865,95.437,540.66,538.801,0.0
